RAVAN                   
1 41849U 16067B   18359.26542487  .00000655  00000-0  60614-4 0  9997
2 41849  97.9216  90.8473 0007632 238.0094 122.0386 14.98030706115734
CELTEE 1                
1 41850U 16067C   18358.80799153  .00000775  00000-0  72803-4 0  9998
2 41850  97.9203  89.4733 0007354 243.4313 116.6154 14.96919465115615
OPTICUBE 04             
1 41851U 16067D   18358.79372094  .00000265  00000-0  28508-4 0  9995
2 41851  97.9191  89.3153 0007731 246.1873 113.8537 14.96739332115603
AEROCUBE 8D             
1 41852U 16067E   18358.85018382  .00000071  00000-0  11523-4 0  9994
2 41852  97.9203  89.2016 0008624 247.2986 112.7323 14.96607732115591
AEROCUBE 8C             
1 41853U 16067F   18358.80206140  .00000702  00000-0  66955-4 0  9991
2 41853  97.9207  89.1022 0008691 247.6132 112.4168 14.96574023115582
PROMETHEUS 2-1          
1 41854U 16067G   18358.79159582  .00000450  00000-0  44695-4 0  9994
2 41854  97.9208  89.1562 0009265 247.5237 112.5003 14.96734269115585
PROMETHEUS 2-3          
1 41855U 16067H   18359.46286689  .00000628  00000-0  60236-4 0  9995
2 41855  97.9212  89.8452 0009385 245.1457 114.8789 14.96736374115683
ITF-2                   
1 41932U 98067KU  18359.44593949  .00448682  11655-3  39628-3 0  9996
2 41932  51.6204  59.8220 0006235  12.0379 348.0784 16.12330109111130
INS-1B                  
1 41954U 17008G   18359.15344488  .00001001  00000-0  44861-4 0  9991
2 41954  97.4240  61.3202 0010466  50.0752 310.1403 15.23497668103075
BGUSAT                  
1 41999U 17008BD  18358.91036591  .00001614  00000-0  66766-4 0  9994
2 41999  97.4297  62.7626 0009665  65.6501 294.5745 15.25378001102494
DIDO-2                  
1 42000U 17008BE  18358.75029868  .00000728  00000-0  33403-4 0  9996
2 42000  97.4256  61.4320 0010099  67.9233 292.3076 15.23569539102411
PEASSS                  
1 42015U 17008BV  18359.47647690  .00000847  00000-0  37387-4 0  9998
2 42015  97.4257  62.8512 0008023  72.4686 287.7428 15.24452335103059
AL-FARABI 1             
1 42016U 17008BW  18359.14785419  .00001122  00000-0  47858-4 0  9996
2 42016  97.4269  62.8823 0007876  73.3838 286.8264 15.24977983103141
NAYIF-1 (EO-88)         
1 42017U 17008BX  18359.13887311  .00001154  00000-0  49118-4 0  9996
2 42017  97.4266  62.8818 0007864  73.4668 286.7433 15.25006261103164
HAVELSAT                
1 42700U 98067LH  18359.50212910  .00070826  00000-0  23712-3 0  9990
2 42700  51.6259  86.0540 0004009 311.1359  48.9300 15.89480924 92232
CXBN-2                  
1 42704U 98067LM  18359.52141057  .00076362  00000-0  26356-3 0  9997
2 42704  51.6292  87.7569 0002212 313.5577  46.5245 15.88852491 92136
PHOENIX                 
1 42706U 98067LP  18359.50105077  .00032544  00000-0  17592-3 0  9995
2 42706  51.6289  94.4614 0000838 247.7770 112.3143 15.79796407 92037
X-CUBESAT               
1 42707U 98067LQ  18359.47512729  .00114941  16301-4  30728-3 0  9991
2 42707  51.6251  83.4949 0003607 334.4924  25.5905 15.94326059 92162
QBEE50-LTU-OC           
1 42708U 98067LR  18359.46828850  .00076485  00000-0  25996-3 0  9992
2 42708  51.6264  87.3536 0002812 324.2187  35.8629 15.89156685 92074
ALTAIR PATHFINDER       
1 42711U 98067LS  18359.55304517  .00017126  00000-0  14020-3 0  9998
2 42711  51.6346 110.7166 0003072 190.3101 169.7834 15.70643202 91481
SHARC                   
1 42712U 98067LT  18359.48835762  .00041298  00000-0  25948-3 0  9990
2 42712  51.6327 109.5809 0002003 246.7293 113.3497 15.76301423 91732
ZA-AEROSAT              
1 42713U 98067LU  18359.51854651  .00032069  00000-0  18607-3 0  9993
2 42713  51.6347  99.1188 0001541 220.0794 140.0093 15.78229647 91633
CSUNSAT 1               
1 42715U 98067LW  18359.52696497  .00037792  00000-0  20041-3 0  9991
2 42715  51.6335  96.9248 0002078 219.6409 140.4441 15.80141050 91665
SPACECUBE               
1 42717U 98067LY  18359.51470108  .00075312  00000-0  26004-3 0  9996
2 42717  51.6219  87.5634 0003779 315.2424  44.8276 15.88843391 91154
NJUST-1                 
1 42722U 98067MB  18359.57472728  .00027672  00000-0  17836-3 0  9997
2 42722  51.6377 102.3420 0003936 233.9461 222.6058 15.75924025 90665
LILACSAT-1              
1 42725U 98067ME  18359.52557671  .00059651  00000-0  26137-3 0  9992
2 42725  51.6366  93.6868 0002441 265.8732 184.2641 15.84046652 90683
NSIGHT-1                
1 42726U 98067MF  18359.51067497  .00007972  00000-0  83833-4 0  9990
2 42726  51.6382 120.3372 0004739 226.4824 133.5778 15.65354957 90336
SNUSAT-1                
1 42727U 98067MG  18359.53515124  .00049582  00000-0  22254-3 0  9990
2 42727  51.6307  93.8474 0003353 242.2088 117.8576 15.83611883 90649
POLYITAN-2-SAU          
1 42732U 98067MM  18359.45750344  .00120249  16734-4  32889-3 0  9992
2 42732  51.6279  84.9629 0002449 312.1256  47.9543 15.93879818 90647
SNUSAT-1B               
1 42733U 98067MN  18359.53410334  .00061483  00000-0  24007-3 0  9996
2 42733  51.6276  90.8171 0002410 249.4336 110.6410 15.86433680 90570
BEEAGLESAT              
1 42736U 98067MR  18359.52947092  .00042601  00000-0  21585-3 0  9993
2 42736  51.6315  96.1234 0004193 257.2151 102.8382 15.81072667 90567
UCLSAT                  
1 42765U 17036A   18359.45183492  .00000936  00000-0  43556-4 0  9998
2 42765  97.3772  56.0002 0013101 121.9785 238.2727 15.22313373 83803
LITUANICASAT-2          
1 42768U 17036D   18358.89470837  .00001532  00000-0  69705-4 0  9997
2 42768  97.3797  55.0068 0016975 115.8877 244.4111 15.22106033 83562
AALTO-1                 
1 42775U 17036L   18359.16074970  .00000582  00000-0  29241-4 0  9999
2 42775  97.3761  54.8438 0015705 113.6454 246.6432 15.21048949 83522
URSA MAIOR              
1 42776U 17036M   18358.87240649  .00000662  00000-0  32730-4 0  9991
2 42776  97.3769  54.6571 0015500 114.5768 245.7085 15.21161438 83486
COMPASS 2               
1 42777U 17036N   18359.12922586  .00001230  00000-0  56242-4 0  9994
2 42777  97.3798  55.6552 0014283 115.8309 244.4402 15.22332680 83558
DIAMOND RED             
1 42783U 17036U   18359.10996885  .00000766  00000-0  36665-4 0  9992
2 42783  97.3772  55.3997 0013720 123.6234 236.6313 15.21843441 83540
PEGASUS                 
1 42784U 17036V   18359.38313409  .00000845  00000-0  39856-4 0  9991
2 42784  97.3775  55.8081 0013646 122.5333 237.7224 15.22093722 83596
DIAMOND GREEN           
1 42785U 17036W   18359.10875148  .00000771  00000-0  36884-4 0  9991
2 42785  97.3774  55.4173 0013606 124.1266 236.1263 15.21843519 83539
DIAMOND BLUE            
1 42786U 17036X   18359.37078783  .00000728  00000-0  35020-4 0  9994
2 42786  97.3774  55.6738 0013465 123.4931 236.7594 15.21844963 83574
NUDTSAT                 
1 42787U 17036Y   18359.21726762  .00001585  00000-0  70562-4 0  9997
2 42787  97.3806  56.0645 0011947 117.1104 243.1351 15.22867130 83438
SUCHAI                  
1 42788U 17036Z   18359.10493497  .00001033  00000-0  47580-4 0  9994
2 42788  97.3778  55.7259 0013231 122.9607 237.2903 15.22436431 83639
SKCUBE                  
1 42789U 17036AA  18358.91387945  .00000955  00000-0  44296-4 0  9996
2 42789  97.3775  55.5114 0013067 123.4860 236.7627 15.22366141 83524
VZLUSAT-1               
1 42790U 17036AB  18358.87618256  .00001252  00000-0  56351-4 0  9991
2 42790  97.3785  55.7329 0012674 123.3930 236.8521 15.22873607 83532
ROBUSTA-1B              
1 42792U 17036AD  18359.52064557  .00000924  00000-0  42801-4 0  9995
2 42792  97.3774  56.2112 0012663 122.2682 237.9783 15.22525647 83639
CICERO 6                
1 42793U 17036AE  18359.47654843  .00000663  00000-0  31795-4 0  9993
2 42793  97.3761  56.0767 0011840 123.3143 236.9228 15.22253546 83695
D-SAT                   
1 42794U 17036AF  18359.11681952  .00000117  00000-0  15708-4 0  9996
2 42794  97.5663  46.2894 0126946   7.3853 352.9197 14.90991879 82172
TOKI                    
1 42820U 98067MU  18359.16212725  .00044771  00000-0  24161-3 0  9998
2 42820  51.6325 101.9587 0001352 228.0527 132.0359 15.79676739 83912
MAZAALAI (NUMSAT-1)     
1 42822U 98067MW  18358.74296414  .00037315  00000-0  20940-3 0  9997
2 42822  51.6341 105.1845 0001798 223.9364 136.1494 15.78896074 83833
BRAC ONNESHA            
1 42823U 98067MX  18359.15851391  .00042726  00000-0  23471-3 0  9999
2 42823  51.6314 102.7180 0003135 213.4483 146.6320 15.79301325 83882
NIGERIAEDUSAT-1         
1 42824U 98067MY  18359.54026259  .00035535  00000-0  20086-3 0  9999
2 42824  51.6351 101.5647 0003379 224.8154 135.2575 15.78755748 83922
CORVUS BC2              
1 42846U 17042X   18359.49593113 -.00000028  00000-0  25509-5 0  9996
2 42846  97.5827 255.2747 0008137 281.4987  78.5319 14.91901241 78891
CORVUS BC1              
1 42847U 17042Y   18358.72317247  .00000285  00000-0  33409-4 0  9995
2 42847  97.5829 254.6093 0007819 284.1191  75.9159 14.92000667 78777
SILU-1 (SILKROAD 1)     
1 42903U 17021F   18359.15844904  .00049709  00000-0  20350-3 0  9992
2 42903  42.7728 241.9482 0016607 226.8595 270.8242 15.85031062 80089
MIRATA                  
1 43015U 17073C   18358.75662436  .00001551  00000-0  12656-3 0  9990
2 43015  97.7152 281.8968 0257212  11.2544 349.4271 14.78576983 59297
MAKERSAT 0              
1 43016U 17073D   18359.35744869  .00001012  00000-0  84293-4 0  9998
2 43016  97.7183 282.6480 0258859   9.4572 351.1379 14.78449838 59374
ASTERIA                 
1 43020U 98067NH  18359.56260695  .00010584  00000-0  11521-3 0  9995
2 43020  51.6417 129.7849 0002337 168.8984 191.2063 15.64048794 62394
DELLINGR (RBLE)         
1 43021U 98067NJ  18359.49682665  .00006386  00000-0  83072-4 0  9999
2 43021  51.6389 135.2795 0002550 154.7388 205.3730 15.60195742 62316
OSIRIS-3U               
1 43027U 98067NL  18359.53132997  .00077814  00000-0  37325-3 0  9991
2 43027  51.6359 112.0845 0001714 254.7857 105.2956 15.82016800 62501
